{
  "type": "FeatureCollection",
  "features": [
    {
      "type": "Feature",
      "properties": {
        "norad_id": 33887,
        "name": "IRIDIUM 33 DEB",
        "group": "iridium-33-debris",
        "lat": -73.42903688450518,
        "lon": -169.4843139041132,
        "alt_km": 773.9928830555082,
        "timestamp": "2025-12-25T07:41:10.108007+00:00",
        "meta_object_name": "IRIDIUM 33 DEB",
        "meta_object_id": "1997-051BG",
        "meta_epoch": "2025-12-24T12:43:39.048384",
        "meta_mean_motion": 14.37231137,
        "meta_eccentricity": 0.00057177,
        "meta_inclination": 86.3043,
        "meta_ra_of_asc_node": 358.3107,
        "meta_arg_of_pericenter": 181.5027,
        "meta_mean_anomaly": 307.6303,
        "meta_ephemeris_type": 0,
        "meta_classification_type": "U",
        "meta_norad_cat_id": 33887,
        "meta_element_set_no": 999,
        "meta_rev_at_epoch": 88334,
        "meta_bstar": 0.00014185554,
        "meta_mean_motion_dot": 4.42e-06,
        "meta_mean_motion_ddot": 0,
        "tle_line1": "1 33887U 97051BG  25358.53031306  .00000442  00000+0  14186-3 0  9997",
        "tle_line2": "2 33887  86.3043 358.3107 0005717 181.5027 307.6303 14.37231137883346"
      },
      "geometry": {
        "type": "Point",
        "coordinates": [
          -169.4843139041132,
          -73.42903688450518
        ]
      }
    },
    {
      "type": "Feature",
      "properties": {
        "norad_id": 33953,
        "name": "IRIDIUM 33 DEB",
        "group": "iridium-33-debris",
        "lat": -30.43334107396034,
        "lon": -129.55225471917828,
        "alt_km": 724.382440984361,
        "timestamp": "2025-12-25T07:41:10.108018+00:00",
        "meta_object_name": "IRIDIUM 33 DEB",
        "meta_object_id": "1997-051BN",
        "meta_epoch": "2025-12-24T21:38:25.546848",
        "meta_mean_motion": 14.55434367,
        "meta_eccentricity": 0.00175965,
        "meta_inclination": 86.3831,
        "meta_ra_of_asc_node": 48.4999,
        "meta_arg_of_pericenter": 65.5266,
        "meta_mean_anomaly": 113.0315,
        "meta_ephemeris_type": 0,
        "meta_classification_type": "U",
        "meta_norad_cat_id": 33953,
        "meta_element_set_no": 999,
        "meta_rev_at_epoch": 88480,
        "meta_bstar": 0.0011638657,
        "meta_mean_motion_dot": 5.088e-05,
        "meta_mean_motion_ddot": 0,
        "tle_line1": "1 33953U 97051BN  25358.90168457  .00005088  00000+0  11639-2 0  9990",
        "tle_line2": "2 33953  86.3831  48.4999 0017596  65.5266 113.0315 14.55434367884809"
      },
      "geometry": {
        "type": "Point",
        "coordinates": [
          -129.55225471917828,
          -30.43334107396034
        ]
      }
    },
    {
      "type": "Feature",
      "properties": {
        "norad_id": 33960,
        "name": "IRIDIUM 33 DEB",
        "group": "iridium-33-debris",
        "lat": -63.361514093652076,
        "lon": -83.92441258577018,
        "alt_km": 619.4423259928053,
        "timestamp": "2025-12-25T07:41:10.108028+00:00",
        "meta_object_name": "IRIDIUM 33 DEB",
        "meta_object_id": "1997-051BV",
        "meta_epoch": "2025-12-24T19:16:49.587744",
        "meta_mean_motion": 14.85784996,
        "meta_eccentricity": 0.00071456,
        "meta_inclination": 86.2538,
        "meta_ra_of_asc_node": 283.8251,
        "meta_arg_of_pericenter": 41.1857,
        "meta_mean_anomaly": 12.3181,
        "meta_ephemeris_type": 0,
        "meta_classification_type": "U",
        "meta_norad_cat_id": 33960,
        "meta_element_set_no": 999,
        "meta_rev_at_epoch": 89046,
        "meta_bstar": 0.003156851,
        "meta_mean_motion_dot": 0.0002755,
        "meta_mean_motion_ddot": 0,
        "tle_line1": "1 33960U 97051BV  25358.80335171  .00027550  00000+0  31569-2 0  9998",
        "tle_line2": "2 33960  86.2538 283.8251 0007145  41.1857  12.3181 14.85784996890461"
      },
      "geometry": {
        "type": "Point",
        "coordinates": [
          -83.92441258577018,
          -63.361514093652076
        ]
      }
    },
    {
      "type": "Feature",
      "properties": {
        "norad_id": 33966,
        "name": "IRIDIUM 33 DEB",
        "group": "iridium-33-debris",
        "lat": 75.07686706011359,
        "lon": 54.32609606814304,
        "alt_km": 718.0226631208061,
        "timestamp": "2025-12-25T07:41:10.108039+00:00",
        "meta_object_name": "IRIDIUM 33 DEB",
        "meta_object_id": "1997-051CB",
        "meta_epoch": "2025-12-24T15:19:33.977280",
        "meta_mean_motion": 14.49638139,
        "meta_eccentricity": 0.00086975,
        "meta_inclination": 86.391,
        "meta_ra_of_asc_node": 40.9201,
        "meta_arg_of_pericenter": 151.377,
        "meta_mean_anomaly": 329.114,
        "meta_ephemeris_type": 0,
        "meta_classification_type": "U",
        "meta_norad_cat_id": 33966,
        "meta_element_set_no": 999,
        "meta_rev_at_epoch": 88614,
        "meta_bstar": 0.00047088613,
        "meta_mean_motion_dot": 1.829e-05,
        "meta_mean_motion_ddot": 0,
        "tle_line1": "1 33966U 97051CB  25358.63858770  .00001829  00000+0  47089-3 0  9996",
        "tle_line2": "2 33966  86.3910  40.9201 0008697 151.3770 329.1140 14.49638139886141"
      },
      "geometry": {
        "type": "Point",
        "coordinates": [
          54.32609606814304,
          75.07686706011359
        ]
      }
    },
    {
      "type": "Feature",
      "properties": {
        "norad_id": 34071,
        "name": "IRIDIUM 33 DEB",
        "group": "iridium-33-debris",
        "lat": 43.39148071767964,
        "lon": -171.10514178753374,
        "alt_km": 720.4665948499096,
        "timestamp": "2025-12-25T07:41:10.108050+00:00",
        "meta_object_name": "IRIDIUM 33 DEB",
        "meta_object_id": "1997-051CE",
        "meta_epoch": "2025-12-24T19:27:44.466912",
        "meta_mean_motion": 14.49516138,
        "meta_eccentricity": 0.00098706,
        "meta_inclination": 86.345,
        "meta_ra_of_asc_node": 12.5806,
        "meta_arg_of_pericenter": 75.4624,
        "meta_mean_anomaly": 284.7675,
        "meta_ephemeris_type": 0,
        "meta_classification_type": "U",
        "meta_norad_cat_id": 34071,
        "meta_element_set_no": 999,
        "meta_rev_at_epoch": 88509,
        "meta_bstar": 0.00060551175,
        "meta_mean_motion_dot": 2.341e-05,
        "meta_mean_motion_ddot": 0,
        "tle_line1": "1 34071U 97051CE  25358.81093133  .00002341  00000+0  60551-3 0  9997",
        "tle_line2": "2 34071  86.3450  12.5806 0009870  75.4624 284.7675 14.49516138885098"
      },
      "geometry": {
        "type": "Point",
        "coordinates": [
          -171.10514178753374,
          43.39148071767964
        ]
      }
    },
    {
      "type": "Feature",
      "properties": {
        "norad_id": 34077,
        "name": "IRIDIUM 33 DEB",
        "group": "iridium-33-debris",
        "lat": -44.255419378411545,
        "lon": 42.43277496921568,
        "alt_km": 679.3238216918326,
        "timestamp": "2025-12-25T07:41:10.108060+00:00",
        "meta_object_name": "IRIDIUM 33 DEB",
        "meta_object_id": "1997-051CL",
        "meta_epoch": "2025-12-24T21:12:18.175680",
        "meta_mean_motion": 14.64984023,
        "meta_eccentricity": 0.00087742,
        "meta_inclination": 86.3847,
        "meta_ra_of_asc_node": 46.157,
        "meta_arg_of_pericenter": 359.5691,
        "meta_mean_anomaly": 174.5212,
        "meta_ephemeris_type": 0,
        "meta_classification_type": "U",
        "meta_norad_cat_id": 34077,
        "meta_element_set_no": 999,
        "meta_rev_at_epoch": 88510,
        "meta_bstar": 0.001577158,
        "meta_mean_motion_dot": 8.474e-05,
        "meta_mean_motion_ddot": 0,
        "tle_line1": "1 34077U 97051CL  25358.88354370  .00008474  00000+0  15772-2 0  9990",
        "tle_line2": "2 34077  86.3847  46.1570 0008774 359.5691 174.5212 14.64984023885101"
      },
      "geometry": {
        "type": "Point",
        "coordinates": [
          42.43277496921568,
          -44.255419378411545
        ]
      }
    },
    {
      "type": "Feature",
      "properties": {
        "norad_id": 34079,
        "name": "IRIDIUM 33 DEB",
        "group": "iridium-33-debris",
        "lat": 76.32320186469077,
        "lon": 18.02891067133664,
        "alt_km": 611.3013211284924,
        "timestamp": "2025-12-25T07:41:10.108072+00:00",
        "meta_object_name": "IRIDIUM 33 DEB",
        "meta_object_id": "1997-051CN",
        "meta_epoch": "2025-12-24T12:30:12.875904",
        "meta_mean_motion": 14.8383167,
        "meta_eccentricity": 0.00041323,
        "meta_inclination": 86.3775,
        "meta_ra_of_asc_node": 3.3024,
        "meta_arg_of_pericenter": 324.129,
        "meta_mean_anomaly": 165.8866,
        "meta_ephemeris_type": 0,
        "meta_classification_type": "U",
        "meta_norad_cat_id": 34079,
        "meta_element_set_no": 999,
        "meta_rev_at_epoch": 89152,
        "meta_bstar": 0.0020259047,
        "meta_mean_motion_dot": 0.00016842,
        "meta_mean_motion_ddot": 0,
        "tle_line1": "1 34079U 97051CN  25358.52098236  .00016842  00000+0  20259-2 0  9993",
        "tle_line2": "2 34079  86.3775   3.3024 0004132 324.1290 165.8866 14.83831670891520"
      },
      "geometry": {
        "type": "Point",
        "coordinates": [
          18.02891067133664,
          76.32320186469077
        ]
      }
    }
  ]
}